{
  "norad_id": 62227,
  "name": "STARLINK-11469 [DTC]",
  "history": [
    {
      "epoch": "2026-03-28T22:15:40.612896Z",
      "apogee_km": 360.48318624053536,
      "perigee_km": 359.16941815587325,
      "latitude_deg": 3.736843827927999e-05,
      "longitude_deg": -153.8797668351062,
      "height_km": 360.2324112119382,
      "semi_major_axis_km": 6737.9633021982045,
      "eccentricity": 9.749e-05,
      "inclination_deg": 53.1575,
      "raan_deg": 6.3804,
      "arg_perigee_deg": 39.3583,
      "mean_anomaly_deg": 320.7506,
      "mean_motion_rev_day": 15.69675212
    },
    {
      "epoch": "2026-03-29T01:19:02.673984Z",
      "apogee_km": 360.42313632561854,
      "perigee_km": 358.82763419278945,
      "latitude_deg": 1.6557344945227327e-05,
      "longitude_deg": 159.525085738571,
      "height_km": 360.4565247725713,
      "semi_major_axis_km": 6737.762385259203,
      "eccentricity": 0.0001184,
      "inclination_deg": 53.1582,
      "raan_deg": 5.7527,
      "arg_perigee_deg": 84.0836,
      "mean_anomaly_deg": 276.0317,
      "mean_motion_rev_day": 15.69745423
    },
    {
      "epoch": "2026-03-30T01:45:59.616288Z",
      "apogee_km": 360.3006816330735,
      "perigee_km": 359.00486990339687,
      "latitude_deg": 1.2468775110702901e-05,
      "longitude_deg": 146.76243271999644,
      "height_km": 360.16232026885143,
      "semi_major_axis_km": 6737.789775768235,
      "eccentricity": 9.616e-05,
      "inclination_deg": 53.1576,
      "raan_deg": 0.7314,
      "arg_perigee_deg": 51.3872,
      "mean_anomaly_deg": 308.7232,
      "mean_motion_rev_day": 15.69735851
    },
    {
      "epoch": "2026-03-30T10:56:06.472608Z",
      "apogee_km": 360.36328546750156,
      "perigee_km": 358.5880592805843,
      "latitude_deg": 2.3507258575827e-05,
      "longitude_deg": 6.9742335464980645,
      "height_km": 360.0153042689674,
      "semi_major_axis_km": 6737.612672374043,
      "eccentricity": 0.00013174,
      "inclination_deg": 53.1572,
      "raan_deg": 358.8483,
      "arg_perigee_deg": 65.1062,
      "mean_anomaly_deg": 295.0093,
      "mean_motion_rev_day": 15.69797744
    },
    {
      "epoch": "2026-03-30T21:37:53.167584Z",
      "apogee_km": 359.9140059851052,
      "perigee_km": 358.6985712158403,
      "latitude_deg": 8.399098862657142e-07,
      "longitude_deg": -156.1062268295258,
      "height_km": 360.7679369292772,
      "semi_major_axis_km": 6737.443288600472,
      "eccentricity": 9.02e-05,
      "inclination_deg": 53.1578,
      "raan_deg": 356.6517,
      "arg_perigee_deg": 154.2275,
      "mean_anomaly_deg": 205.8788,
      "mean_motion_rev_day": 15.69856943
    },
    {
      "epoch": "2026-03-31T02:12:56.327904Z",
      "apogee_km": 360.12266255937084,
      "perigee_km": 358.91446616357007,
      "latitude_deg": -2.2961878072697163e-05,
      "longitude_deg": 134.00142081610034,
      "height_km": 360.1817545282139,
      "semi_major_axis_km": 6737.65556436147,
      "eccentricity": 8.966e-05,
      "inclination_deg": 53.1569,
      "raan_deg": 355.7108,
      "arg_perigee_deg": 65.4972,
      "mean_anomaly_deg": 294.6139,
      "mean_motion_rev_day": 15.69782754
    },
    {
      "epoch": "2026-04-01T21:00:04.864320Z",
      "apogee_km": 360.31043003829836,
      "perigee_km": 357.8890671508543,
      "latitude_deg": 2.4618815352208666e-05,
      "longitude_deg": -158.32975622946458,
      "height_km": 361.18163806361446,
      "semi_major_axis_km": 6737.236748594576,
      "eccentricity": 0.0001797,
      "inclination_deg": 53.1579,
      "raan_deg": 346.9223,
      "arg_perigee_deg": 164.6671,
      "mean_anomaly_deg": 195.4402,
      "mean_motion_rev_day": 15.69929133
    },
    {
      "epoch": "2026-04-02T00:03:27.144864Z",
      "apogee_km": 360.3887225883418,
      "perigee_km": 358.87703653816425,
      "latitude_deg": -1.3454200996193017e-05,
      "longitude_deg": 155.0729667364703,
      "height_km": 360.0977496163533,
      "semi_major_axis_km": 6737.769879563253,
      "eccentricity": 0.00011218,
      "inclination_deg": 53.1578,
      "raan_deg": 346.2934,
      "arg_perigee_deg": 53.5715,
      "mean_anomaly_deg": 306.5406,
      "mean_motion_rev_day": 15.69742804
    },
    {
      "epoch": "2026-04-02T22:58:41.562336Z",
      "apogee_km": 360.2681962451643,
      "perigee_km": 359.09487252558756,
      "latitude_deg": 3.918977195018767e-05,
      "longitude_deg": 165.61751529472465,
      "height_km": 360.5091329887737,
      "semi_major_axis_km": 6737.818534385376,
      "eccentricity": 8.707e-05,
      "inclination_deg": 53.1572,
      "raan_deg": 341.5893,
      "arg_perigee_deg": 81.5633,
      "mean_anomaly_deg": 278.5484,
      "mean_motion_rev_day": 15.69725801
    },
    {
      "epoch": "2026-04-03T05:05:24.637344Z",
      "apogee_km": 360.4020047051572,
      "perigee_km": 358.36538694922183,
      "latitude_deg": 5.0968804113828465e-05,
      "longitude_deg": 72.42863538976268,
      "height_km": 361.22852315682604,
      "semi_major_axis_km": 6737.520695827189,
      "eccentricity": 0.00015114,
      "inclination_deg": 53.1572,
      "raan_deg": 340.3309,
      "arg_perigee_deg": 156.0753,
      "mean_anomaly_deg": 204.0336,
      "mean_motion_rev_day": 15.69829889
    },
    {
      "epoch": "2026-04-04T19:17:32.251200Z",
      "apogee_km": 359.7961995540554,
      "perigee_km": 358.5848280670716,
      "latitude_deg": -3.2401686868120666e-06,
      "longitude_deg": -150.01183533511502,
      "height_km": 360.69792954945257,
      "semi_major_axis_km": 6737.327513810563,
      "eccentricity": 8.99e-05,
      "inclination_deg": 53.1558,
      "raan_deg": 332.4911,
      "arg_perigee_deg": 168.243,
      "mean_anomaly_deg": 191.8609,
      "mean_motion_rev_day": 15.69897408
    },
    {
      "epoch": "2026-04-05T09:02:43.113696Z",
      "apogee_km": 360.50510304152704,
      "perigee_km": 358.51992198916014,
      "latitude_deg": 6.654478102206342e-05,
      "longitude_deg": 0.2963390462394219,
      "height_km": 359.7491068865016,
      "semi_major_axis_km": 6737.649512515343,
      "eccentricity": 0.00014732,
      "inclination_deg": 53.156,
      "raan_deg": 329.6593,
      "arg_perigee_deg": 47.0202,
      "mean_anomaly_deg": 313.094,
      "mean_motion_rev_day": 15.69784869
    },
    {
      "epoch": "2026-04-05T19:44:29.703264Z",
      "apogee_km": 359.96151342392113,
      "perigee_km": 358.95222186254796,
      "latitude_deg": 1.5704342875973488e-05,
      "longitude_deg": -162.78440323253233,
      "height_km": 360.13630931882557,
      "semi_major_axis_km": 6737.593867643234,
      "eccentricity": 7.49e-05,
      "inclination_deg": 53.1555,
      "raan_deg": 327.462,
      "arg_perigee_deg": 62.3311,
      "mean_anomaly_deg": 297.7783,
      "mean_motion_rev_day": 15.69804316
    },
    {
      "epoch": "2026-04-06T00:19:32.352960Z",
      "apogee_km": 360.1583768847677,
      "perigee_km": 358.8949301964558,
      "latitude_deg": 6.867623305994208e-05,
      "longitude_deg": 127.32463444506375,
      "height_km": 360.0421603238196,
      "semi_major_axis_km": 6737.663653540611,
      "eccentricity": 9.376e-05,
      "inclination_deg": 53.1562,
      "raan_deg": 326.5203,
      "arg_perigee_deg": 50.9187,
      "mean_anomaly_deg": 309.1915,
      "mean_motion_rev_day": 15.69779927
    },
    {
      "epoch": "2026-04-07T14:31:37.810272Z",
      "apogee_km": 360.25591687277574,
      "perigee_km": 358.36727528232313,
      "latitude_deg": -6.038967240139471e-06,
      "longitude_deg": -95.11384475746053,
      "height_km": 360.52772609930264,
      "semi_major_axis_km": 6737.448596077549,
      "eccentricity": 0.00014016,
      "inclination_deg": 53.1561,
      "raan_deg": 318.6735,
      "arg_perigee_deg": 108.7253,
      "mean_anomaly_deg": 251.3917,
      "mean_motion_rev_day": 15.69855088
    },
    {
      "epoch": "2026-04-07T20:38:21.950592Z",
      "apogee_km": 360.1628992881615,
      "perigee_km": 359.0471292106022,
      "latitude_deg": 5.174897457169332e-05,
      "longitude_deg": 171.69605790448915,
      "height_km": 360.1817943251357,
      "semi_major_axis_km": 6737.742014249382,
      "eccentricity": 8.28e-05,
      "inclination_deg": 53.1564,
      "raan_deg": 317.4183,
      "arg_perigee_deg": 52.828,
      "mean_anomaly_deg": 307.2814,
      "mean_motion_rev_day": 15.69752542
    },
    {
      "epoch": "2026-04-08T14:58:34.444992Z",
      "apogee_km": 360.10084356189145,
      "perigee_km": 358.9081462644617,
      "latitude_deg": 6.939297892746069e-05,
      "longitude_deg": -107.87495706884205,
      "height_km": 360.3866974914787,
      "semi_major_axis_km": 6737.641494913176,
      "eccentricity": 8.851e-05,
      "inclination_deg": 53.1568,
      "raan_deg": 313.6524,
      "arg_perigee_deg": 86.9804,
      "mean_anomaly_deg": 273.1316,
      "mean_motion_rev_day": 15.69787671
    },
    {
      "epoch": "2026-04-09T20:00:33.877152Z",
      "apogee_km": 360.48176055952626,
      "perigee_km": 359.0506299208573,
      "latitude_deg": 2.9202638183523103e-05,
      "longitude_deg": 169.47102524613138,
      "height_km": 361.11450970081813,
      "semi_major_axis_km": 6737.903195240191,
      "eccentricity": 0.0001062,
      "inclination_deg": 53.1579,
      "raan_deg": 307.6884,
      "arg_perigee_deg": 127.3946,
      "mean_anomaly_deg": 232.7169,
      "mean_motion_rev_day": 15.69696216
    },
    {
      "epoch": "2026-04-10T06:42:21.049056Z",
      "apogee_km": 359.67317376475694,
      "perigee_km": 359.1599069360518,
      "latitude_deg": 5.805671580140979e-05,
      "longitude_deg": 6.388508950133373,
      "height_km": 360.14160360885074,
      "semi_major_axis_km": 6737.553540350404,
      "eccentricity": 3.809e-05,
      "inclination_deg": 53.1577,
      "raan_deg": 305.4917,
      "arg_perigee_deg": 42.4148,
      "mean_anomaly_deg": 317.69,
      "mean_motion_rev_day": 15.6981841
    }
  ]
}